IRIDIUM 921             
1 24873U 97034E   24346.07746976  .00130701  00000+0  11270-2 0  9996
2 24873  86.3710 199.0254 0002215  49.7229 310.4233 15.68859530502861
IRIDIUM 26              
1 24903U 97043A   24345.82955939  .00000836  00000+0  27654-3 0  9992
2 24903  86.3983 189.6610 0002015  80.1429 279.9995 14.36842473429692
IRIDIUM 22              
1 24907U 97043E   24345.81481269  .00000710  00000+0  23941-3 0  9991
2 24907  86.3988 193.0410 0001963  87.4063 272.7358 14.35689066429749
DUMMY MASS 1            
1 24925U 97048A   24345.90735604  .00000849  00000+0  92386-4 0  9994
2 24925  86.3366 222.3010 0009094  92.4962 267.7304 14.86670655477151
DUMMY MASS 2            
1 24926U 97048B   24346.17486383  .00000817  00000+0  89339-4 0  9991
2 24926  86.3364 223.7502 0009868 100.4993 259.7344 14.86425613477218
IRIDIUM 29              
1 24944U 97051A   24345.69251167  .00000808  00000+0  27070-3 0  9994
2 24944  86.3977 222.8779 0002109  88.8676 271.2762 14.36155079426210
IRIDIUM 33              
1 24946U 97051C   24346.17069187  .00000506  00000+0  17181-3 0  9996
2 24946  86.3893 221.9255 0007329 346.8302  13.2701 14.34682316425796
IRIDIUM 28              
1 24948U 97051E   24345.92769188  .00000702  00000+0  22982-3 0  9991
2 24948  86.3984 220.4031 0001994  71.1316 289.0098 14.37101965426804
